GLOBALSTAR M057         
1 25943U 99058A   24275.66432595 -.00000008  00000+0  77002-3 0  9991
2 25943  52.0017   1.8754 0002455 192.2129 167.8661 12.24799606135254
GLOBALSTAR M059         
1 25944U 99058B   24275.77555427 -.00000086  00000+0  19941-5 0  9990
2 25944  52.0006 186.2537 0000770  76.1057 299.0625 11.99965794543028
GLOBALSTAR M056         
1 25945U 99058C   24275.72717015 -.00000121  00000+0 -39498-3 0  9997
2 25945  51.9954 194.9785 0001505  37.1114 335.6734 12.04777700131473
GLOBALSTAR M031         
1 25946U 99058D   24276.55391241  .00000007  00000+0  99210-3 0  9998
2 25946  51.9944 100.4729 0001945  43.4489 352.8572 12.16019561133443
GLOBALSTAR M039         
1 25961U 99062A   24276.19390714 -.00000015  00000+0  49651-3 0  9998
2 25961  51.9865 334.5031 0003103 133.7029 226.4095 12.62304560147661
GLOBALSTAR M034         
1 25962U 99062B   24275.91667334 -.00000032  00000+0  76823-3 0  9993
2 25962  51.9890 322.7390 0013814 273.4484 258.4587 11.79433448107914
GLOBALSTAR M029         
1 25963U 99062C   24275.88231722 -.00000061  00000+0  31606-3 0  9990
2 25963  51.9795  74.2198 0002156 349.3737 163.2860 11.99883648138111
GLOBALSTAR M061         
1 25964U 99062D   24276.35382620 -.00000045  00000+0  57135-3 0  9995
2 25964  51.9774 142.2161 0005466 193.0473 337.8371 11.76766401 91119
